{
  "type": "FeatureCollection",
  "features": [
    {
      "type": "Feature",
      "properties": {
        "norad_id": 41581,
        "name": "INTELSAT 31 (IS-31)",
        "group": "intelsat",
        "lat": -0.026193811750597373,
        "lon": -113.60913799067613,
        "alt_km": 35778.2278940661,
        "timestamp": "2025-12-20T16:47:35.959084+00:00",
        "meta_object_name": "INTELSAT 31 (IS-31)",
        "meta_object_id": "2016-035A",
        "meta_epoch": "2025-12-20T12:34:47.372160",
        "meta_mean_motion": 1.00275908,
        "meta_eccentricity": 0.0001981,
        "meta_inclination": 0.0288,
        "meta_ra_of_asc_node": 268.1426,
        "meta_arg_of_pericenter": 301.6043,
        "meta_mean_anomaly": 333.2619,
        "meta_ephemeris_type": 0,
        "meta_classification_type": "U",
        "meta_norad_cat_id": 41581,
        "meta_element_set_no": 999,
        "meta_rev_at_epoch": 3489,
        "meta_bstar": 0,
        "meta_mean_motion_dot": -1.28e-06,
        "meta_mean_motion_ddot": 0,
        "tle_line1": "1 41581U 16035A   25354.52415940 -.00000128  00000+0  00000+0 0  9993",
        "tle_line2": "2 41581   0.0288 268.1426 0001981 301.6043 333.2619  1.00275908 34897"
      },
      "geometry": {
        "type": "Point",
        "coordinates": [
          -113.60913799067613,
          -0.026193811750597373
        ]
      }
    },
    {
      "type": "Feature",
      "properties": {
        "norad_id": 41747,
        "name": "INTELSAT 36 (IS-36)",
        "group": "intelsat",
        "lat": 0.02748344076983621,
        "lon": 49.922869988953096,
        "alt_km": 35785.09945175763,
        "timestamp": "2025-12-20T16:47:35.959096+00:00",
        "meta_object_name": "INTELSAT 36 (IS-36)",
        "meta_object_id": "2016-053A",
        "meta_epoch": "2025-12-20T10:07:56.413344",
        "meta_mean_motion": 1.00271763,
        "meta_eccentricity": 0.0001172,
        "meta_inclination": 0.0107,
        "meta_ra_of_asc_node": 8.1508,
        "meta_arg_of_pericenter": 323.4554,
        "meta_mean_anomaly": 338.1246,
        "meta_ephemeris_type": 0,
        "meta_classification_type": "U",
        "meta_norad_cat_id": 41747,
        "meta_element_set_no": 999,
        "meta_rev_at_epoch": 3415,
        "meta_bstar": 0,
        "meta_mean_motion_dot": -1e-08,
        "meta_mean_motion_ddot": 0,
        "tle_line1": "1 41747U 16053A   25354.42218071 -.00000001  00000+0  00000+0 0  9992",
        "tle_line2": "2 41747   0.0107   8.1508 0001172 323.4554 338.1246  1.00271763 34159"
      },
      "geometry": {
        "type": "Point",
        "coordinates": [
          49.922869988953096,
          0.02748344076983621
        ]
      }
    },
    {
      "type": "Feature",
      "properties": {
        "norad_id": 41945,
        "name": "INTELSAT 32E (IS-32E)",
        "group": "intelsat",
        "lat": -0.03607643492066091,
        "lon": -61.75318703823627,
        "alt_km": 35785.48255854847,
        "timestamp": "2025-12-20T16:47:35.959108+00:00",
        "meta_object_name": "INTELSAT 32E (IS-32E)",
        "meta_object_id": "2017-007B",
        "meta_epoch": "2025-12-20T07:53:24.298080",
        "meta_mean_motion": 1.00274334,
        "meta_eccentricity": 3.54e-05,
        "meta_inclination": 0.0278,
        "meta_ra_of_asc_node": 69.9783,
        "meta_arg_of_pericenter": 320.6624,
        "meta_mean_anomaly": 133.7019,
        "meta_ephemeris_type": 0,
        "meta_classification_type": "U",
        "meta_norad_cat_id": 41945,
        "meta_element_set_no": 999,
        "meta_rev_at_epoch": 3243,
        "meta_bstar": 0,
        "meta_mean_motion_dot": -2.45e-06,
        "meta_mean_motion_ddot": 0,
        "tle_line1": "1 41945U 17007B   25354.32875345 -.00000245  00000+0  00000+0 0  9994",
        "tle_line2": "2 41945   0.0278  69.9783 0000354 320.6624 133.7019  1.00274334 32439"
      },
      "geometry": {
        "type": "Point",
        "coordinates": [
          -61.75318703823627,
          -0.03607643492066091
        ]
      }
    },
    {
      "type": "Feature",
      "properties": {
        "norad_id": 42818,
        "name": "INTELSAT 35E (IS-35E)",
        "group": "intelsat",
        "lat": -0.039947414852441354,
        "lon": -53.055232335751946,
        "alt_km": 35779.92022785832,
        "timestamp": "2025-12-20T16:47:35.959119+00:00",
        "meta_object_name": "INTELSAT 35E (IS-35E)",
        "meta_object_id": "2017-041A",
        "meta_epoch": "2025-12-20T06:13:03.908064",
        "meta_mean_motion": 1.00271141,
        "meta_eccentricity": 0.0001848,
        "meta_inclination": 0.0185,
        "meta_ra_of_asc_node": 20.7222,
        "meta_arg_of_pericenter": 250.8671,
        "meta_mean_anomaly": 236.2857,
        "meta_ephemeris_type": 0,
        "meta_classification_type": "U",
        "meta_norad_cat_id": 42818,
        "meta_element_set_no": 999,
        "meta_rev_at_epoch": 3102,
        "meta_bstar": 0,
        "meta_mean_motion_dot": -2.14e-06,
        "meta_mean_motion_ddot": 0,
        "tle_line1": "1 42818U 17041A   25354.25907301 -.00000214  00000+0  00000+0 0  9998",
        "tle_line2": "2 42818   0.0185  20.7222 0001848 250.8671 236.2857  1.00271141 31020"
      },
      "geometry": {
        "type": "Point",
        "coordinates": [
          -53.055232335751946,
          -0.039947414852441354
        ]
      }
    },
    {
      "type": "Feature",
      "properties": {
        "norad_id": 42950,
        "name": "INTELSAT 37E (IS-37E)",
        "group": "intelsat",
        "lat": -0.03255842744011349,
        "lon": -36.555314968207334,
        "alt_km": 35781.047737851775,
        "timestamp": "2025-12-20T16:47:35.959130+00:00",
        "meta_object_name": "INTELSAT 37E (IS-37E)",
        "meta_object_id": "2017-059A",
        "meta_epoch": "2025-12-20T08:00:31.115808",
        "meta_mean_motion": 1.00270864,
        "meta_eccentricity": 0.0002953,
        "meta_inclination": 0.0188,
        "meta_ra_of_asc_node": 17.8446,
        "meta_arg_of_pericenter": 240.5799,
        "meta_mean_anomaly": 292.869,
        "meta_ephemeris_type": 0,
        "meta_classification_type": "U",
        "meta_norad_cat_id": 42950,
        "meta_element_set_no": 999,
        "meta_rev_at_epoch": 3027,
        "meta_bstar": 0,
        "meta_mean_motion_dot": -1.17e-06,
        "meta_mean_motion_ddot": 0,
        "tle_line1": "1 42950U 17059A   25354.33369347 -.00000117  00000+0  00000+0 0  9997",
        "tle_line2": "2 42950   0.0188  17.8446 0002953 240.5799 292.8690  1.00270864 30270"
      },
      "geometry": {
        "type": "Point",
        "coordinates": [
          -36.555314968207334,
          -0.03255842744011349
        ]
      }
    },
    {
      "type": "Feature",
      "properties": {
        "norad_id": 43632,
        "name": "AZERSPACE 2 (IS-38)",
        "group": "intelsat",
        "lat": 0.00309421429137269,
        "lon": 26.546357272396676,
        "alt_km": 35788.29446864831,
        "timestamp": "2025-12-20T16:47:35.959142+00:00",
        "meta_object_name": "AZERSPACE 2 (IS-38)",
        "meta_object_id": "2018-074A",
        "meta_epoch": "2025-12-20T04:53:04.070112",
        "meta_mean_motion": 1.00270817,
        "meta_eccentricity": 0.0001162,
        "meta_inclination": 0.0082,
        "meta_ra_of_asc_node": 42.9819,
        "meta_arg_of_pericenter": 229.623,
        "meta_mean_anomaly": 294.8181,
        "meta_ephemeris_type": 0,
        "meta_classification_type": "U",
        "meta_norad_cat_id": 43632,
        "meta_element_set_no": 999,
        "meta_rev_at_epoch": 2665,
        "meta_bstar": 0,
        "meta_mean_motion_dot": 1.6e-06,
        "meta_mean_motion_ddot": 0,
        "tle_line1": "1 43632U 18074A   25354.20351933  .00000160  00000+0  00000+0 0  9998",
        "tle_line2": "2 43632   0.0082  42.9819 0001162 229.6230 294.8181  1.00270817 26655"
      },
      "geometry": {
        "type": "Point",
        "coordinates": [
          26.546357272396676,
          0.00309421429137269
        ]
      }
    },
    {
      "type": "Feature",
      "properties": {
        "norad_id": 43633,
        "name": "HORIZONS-3E",
        "group": "intelsat",
        "lat": -0.0037676043682410092,
        "lon": 150.389389163958,
        "alt_km": 35791.075041402655,
        "timestamp": "2025-12-20T16:47:35.959154+00:00",
        "meta_object_name": "HORIZONS-3E",
        "meta_object_id": "2018-074B",
        "meta_epoch": "2025-12-20T11:32:38.876928",
        "meta_mean_motion": 1.00267376,
        "meta_eccentricity": 9.05e-05,
        "meta_inclination": 0.0089,
        "meta_ra_of_asc_node": 234.5772,
        "meta_arg_of_pericenter": 86.8436,
        "meta_mean_anomaly": 110.0297,
        "meta_ephemeris_type": 0,
        "meta_classification_type": "U",
        "meta_norad_cat_id": 43633,
        "meta_element_set_no": 999,
        "meta_rev_at_epoch": 2654,
        "meta_bstar": 0,
        "meta_mean_motion_dot": 0,
        "meta_mean_motion_ddot": 0,
        "tle_line1": "1 43633U 18074B   25354.48100552  .00000000  00000+0  00000+0 0  9991",
        "tle_line2": "2 43633   0.0089 234.5772 0000905  86.8436 110.0297  1.00267376 26546"
      },
      "geometry": {
        "type": "Point",
        "coordinates": [
          150.389389163958,
          -0.0037676043682410092
        ]
      }
    }
  ]
}